{
    "links": {
        "self": "http://www.neowsapp.com/rest/v1/neo/3520205?api_key=iIulBulltgU6a56xZRHN4H3l9WmuAYTsLGpBGhQ2"
    },
    "id": "3520205",
    "neo_reference_id": "3520205",
    "name": "(2010 HY103)",
    "designation": "2010 HY103",
    "nasa_jpl_url": "http://ssd.jpl.nasa.gov/sbdb.cgi?sstr=3520205",
    "absolute_magnitude_h": 23.8,
    "estimated_diameter": {
        "kilometers": {
            "estimated_diameter_min": 0.046190746,
            "estimated_diameter_max": 0.1032856481
        },
        "meters": {
            "estimated_diameter_min": 46.1907460282,
            "estimated_diameter_max": 103.2856480504
        },
        "miles": {
            "estimated_diameter_min": 0.0287015901,
            "estimated_diameter_max": 0.0641787064
        },
        "feet": {
            "estimated_diameter_min": 151.544447199,
            "estimated_diameter_max": 338.8636855496
        }
    },
    "is_potentially_hazardous_asteroid": false,
    "close_approach_data": [
        {
            "close_approach_date": "1953-04-10",
            "close_approach_date_full": "1953-Apr-10 14:15",
            "epoch_date_close_approach": -527852700000,
            "relative_velocity": {
                "kilometers_per_second": "12.5550604869",
                "kilometers_per_hour": "45198.2177527828",
                "miles_per_hour": "28084.414803111"
            },
            "miss_distance": {
                "astronomical": "0.1171739404",
                "lunar": "45.5806628156",
                "kilometers": "17528971.903346948",
                "miles": "10891998.0720779624"
            },
            "orbiting_body": "Earth"
        },
        {
            "close_approach_date": "2010-05-10",
            "close_approach_date_full": "2010-May-10 07:08",
            "epoch_date_close_approach": 1273475280000,
            "relative_velocity": {
                "kilometers_per_second": "8.2023356324",
                "kilometers_per_hour": "29528.4082767935",
                "miles_per_hour": "18347.8045762109"
            },
            "miss_distance": {
                "astronomical": "0.0210547507",
                "lunar": "8.1902980223",
                "kilometers": "3149745.858101009",
                "miles": "1957161.3214475642"
            },
            "orbiting_body": "Earth"
        },
        {
            "close_approach_date": "2012-06-19",
            "close_approach_date_full": "2012-Jun-19 03:06",
            "epoch_date_close_approach": 1340075160000,
            "relative_velocity": {
                "kilometers_per_second": "4.8472074565",
                "kilometers_per_hour": "17449.9468434438",
                "miles_per_hour": "10842.7183594721"
            },
            "miss_distance": {
                "astronomical": "0.6617814812",
                "lunar": "257.4329961868",
                "kilometers": "99001099.992965044",
                "miles": "61516430.9808198472"
            },
            "orbiting_body": "Juptr"
        }
    ],
    "orbital_data": {
        "orbit_id": "10",
        "orbit_determination_date": "2017-04-06 08:57:41",
        "first_observation_date": "2010-04-17",
        "last_observation_date": "2010-05-12",
        "data_arc_in_days": 25,
        "observations_used": 91,
        "orbit_uncertainty": "7",
        "minimum_orbit_intersection": ".0355958",
        "jupiter_tisserand_invariant": "3.067",
        "epoch_osculation": "2459000.5",
        "eccentricity": ".6118224029023898",
        "semi_major_axis": "2.698680500154008",
        "inclination": ".5199165384762335",
        "ascending_node_longitude": "214.2010946469655",
        "orbital_period": "1619.293726560267",
        "perihelion_distance": "1.04756731188396",
        "perihelion_argument": "25.21029479293492",
        "aphelion_distance": "4.349793688424056",
        "perihelion_time": "2458597.468496550039",
        "mean_anomaly": "89.60162005332514",
        "mean_motion": ".2223191469806522",
        "equinox": "J2000",
        "orbit_class": {
            "orbit_class_type": "AMO",
            "orbit_class_description": "Near-Earth asteroid orbits similar to that of 1221 Amor",
            "orbit_class_range": "1.017 AU < q (perihelion) < 1.3 AU"
        }
    },
    "is_sentry_object": false
}